STARLINK-4356           
1 53224U 22084AM  25321.42553272 -.00000004  00000+0  42430-5 0  9997
2 53224  97.6034  20.2911 0003115  80.9800 279.1777 15.01262862182472
STARLINK-4358           
1 53225U 22084AN  25321.12084947 -.00000144  00000+0 -57476-5 0  9995
2 53225  97.6043  20.2148 0001494  63.1273 297.0107 15.05658682182446
STARLINK-4359           
1 53226U 22084AP  25321.14780419  .00001275  00000+0  10376-3 0  9995
2 53226  97.6022  20.0311 0001450 215.1165 144.9964 15.01268261182431
STARLINK-4366           
1 53227U 22084AQ  25321.16792868 -.00000771  00000+0 -49247-4 0  9991
2 53227  97.6025  20.2757 0001987  77.6502 282.4947 15.05658088182457
STARLINK-4365           
1 53228U 22084AR  25321.41811712 -.00000857  00000+0 -62217-4 0  9997
2 53228  97.6028  20.2834 0000623 181.3464 178.7759 15.01266921182470
STARLINK-4367           
1 53229U 22084AS  25321.17346466  .00003443  00000+0  24265-3 0  9992
2 53229  97.6057  20.2869 0001475 102.4192 257.7200 15.05657416182453
STARLINK-4364           
1 53230U 22084AT  25321.15131176  .00002371  00000+0  16843-3 0  9994
2 53230  97.6025  20.3209 0000309 128.1954 231.9301 15.05655015182454
STARLINK-4370           
1 53231U 22084AU  25321.42822361 -.00000191  00000+0 -89896-5 0  9998
2 53231  97.6060  20.5575 0001839  85.0929 275.0508 15.05651818182493
STARLINK-4371           
1 53232U 22084AV  25321.41071072 -.00000910  00000+0 -66261-4 0  9992
2 53232  97.6032  20.2754 0002450 184.9223 175.1978 15.01267308182477
STARLINK-4372           
1 53233U 22084AW  25321.13878809  .00001460  00000+0  11820-3 0  9994
2 53233  97.6030  20.0114 0002513 181.4163 178.7055 15.01258632182430
STARLINK-4368           
1 53234U 22084AX  25321.40700734  .00001084  00000+0  88871-4 0  9999
2 53234  97.6021  20.2683 0003133 164.0903 196.0420 15.01275704183486
STARLINK-4056           
1 53242U 22086A   25321.36048319  .00001048  00000+0  83914-4 0  9992
2 53242  53.2183 343.3756 0000902  95.6685 264.4410 15.08848070184354
STARLINK-4047           
1 53243U 22086B   25321.46486708  .00000742  00000+0  64698-4 0  9990
2 53243  53.2178 347.6062 0001206  94.9441 265.1688 15.08856870184325
STARLINK-4125           
1 53244U 22086C   25321.35819442 -.00001030  00000+0 -46588-4 0  9995
2 53244  53.2197 348.4720 0001911  87.9609 272.1602 15.08843008184286
STARLINK-4131           
1 53246U 22086E   25321.48698162  .00006659  00000+0  43596-3 0  9990
2 53246  53.2174 347.8183 0001065  70.7803 289.3305 15.08852202183190
STARLINK-4061           
1 53247U 22086F   25321.37522484  .00001116  00000+0  88177-4 0  9990
2 53247  53.2175 343.5064 0001312  97.1639 262.9502 15.08851305184356
STARLINK-4135           
1 53248U 22086G   25321.36417603 -.00000808  00000+0 -32670-4 0  9992
2 53248  53.2182 343.4743 0001337  90.2437 269.8708 15.08844684184351
