[{"OBJECT_NAME":"STARLINK-4356","OBJECT_ID":"2022-084AM","EPOCH":"2025-11-17T10:12:46.027008","MEAN_MOTION":15.01262862,"ECCENTRICITY":0.0003115,"INCLINATION":97.6034,"RA_OF_ASC_NODE":20.2911,"ARG_OF_PERICENTER":80.98,"MEAN_ANOMALY":279.1777,"EPHEMERIS_TYPE":0,"CLASSIFICATION_TYPE":"U","NORAD_CAT_ID":53224,"ELEMENT_SET_NO":999,"REV_AT_EPOCH":18247,"BSTAR":4.243e-6,"MEAN_MOTION_DOT":-4.0e-8,"MEAN_MOTION_DDOT":0},{"OBJECT_NAME":"STARLINK-4358","OBJECT_ID":"2022-084AN","EPOCH":"2025-11-17T02:54:01.394208","MEAN_MOTION":15.05658682,"ECCENTRICITY":0.00014942,"INCLINATION":97.6043,"RA_OF_ASC_NODE":20.2148,"ARG_OF_PERICENTER":63.1273,"MEAN_ANOMALY":297.0107,"EPHEMERIS_TYPE":0,"CLASSIFICATION_TYPE":"U","NORAD_CAT_ID":53225,"ELEMENT_SET_NO":999,"REV_AT_EPOCH":18244,"BSTAR":-5.747579e-6,"MEAN_MOTION_DOT":-1.44e-6,"MEAN_MOTION_DDOT":0},{"OBJECT_NAME":"STARLINK-4359","OBJECT_ID":"2022-084AP","EPOCH":"2025-11-17T03:32:50.282016","MEAN_MOTION":15.01268261,"ECCENTRICITY":0.00014505,"INCLINATION":97.6022,"RA_OF_ASC_NODE":20.0311,"ARG_OF_PERICENTER":215.1165,"MEAN_ANOMALY":144.9964,"EPHEMERIS_TYPE":0,"CLASSIFICATION_TYPE":"U","NORAD_CAT_ID":53226,"ELEMENT_SET_NO":999,"REV_AT_EPOCH":18243,"BSTAR":0.00010376443,"MEAN_MOTION_DOT":1.275e-5,"MEAN_MOTION_DDOT":0},{"OBJECT_NAME":"STARLINK-4366","OBJECT_ID":"2022-084AQ","EPOCH":"2025-11-17T04:01:49.037952","MEAN_MOTION":15.05658088,"ECCENTRICITY":0.00019876,"INCLINATION":97.6025,"RA_OF_ASC_NODE":20.2757,"ARG_OF_PERICENTER":77.6502,"MEAN_ANOMALY":282.4947,"EPHEMERIS_TYPE":0,"CLASSIFICATION_TYPE":"U","NORAD_CAT_ID":53227,"ELEMENT_SET_NO":999,"REV_AT_EPOCH":18245,"BSTAR":-4.9246653e-5,"MEAN_MOTION_DOT":-7.71e-6,"MEAN_MOTION_DDOT":0},{"OBJECT_NAME":"STARLINK-4365","OBJECT_ID":"2022-084AR","EPOCH":"2025-11-17T10:02:05.319168","MEAN_MOTION":15.01266921,"ECCENTRICITY":6.23e-5,"INCLINATION":97.6028,"RA_OF_ASC_NODE":20.2834,"ARG_OF_PERICENTER":181.3464,"MEAN_ANOMALY":178.7759,"EPHEMERIS_TYPE":0,"CLASSIFICATION_TYPE":"U","NORAD_CAT_ID":53228,"ELEMENT_SET_NO":999,"REV_AT_EPOCH":18247,"BSTAR":-6.2217e-5,"MEAN_MOTION_DOT":-8.57e-6,"MEAN_MOTION_DDOT":0},{"OBJECT_NAME":"STARLINK-4367","OBJECT_ID":"2022-084AS","EPOCH":"2025-11-17T04:09:47.346624","MEAN_MOTION":15.05657416,"ECCENTRICITY":0.00014751,"INCLINATION":97.6057,"RA_OF_ASC_NODE":20.2869,"ARG_OF_PERICENTER":102.4192,"MEAN_ANOMALY":257.72,"EPHEMERIS_TYPE":0,"CLASSIFICATION_TYPE":"U","NORAD_CAT_ID":53229,"ELEMENT_SET_NO":999,"REV_AT_EPOCH":18245,"BSTAR":0.00024265116,"MEAN_MOTION_DOT":3.443e-5,"MEAN_MOTION_DDOT":0},{"OBJECT_NAME":"STARLINK-4364","OBJECT_ID":"2022-084AT","EPOCH":"2025-11-17T03:37:53.336064","MEAN_MOTION":15.05655015,"ECCENTRICITY":3.09e-5,"INCLINATION":97.6025,"RA_OF_ASC_NODE":20.3209,"ARG_OF_PERICENTER":128.1954,"MEAN_ANOMALY":231.9301,"EPHEMERIS_TYPE":0,"CLASSIFICATION_TYPE":"U","NORAD_CAT_ID":53230,"ELEMENT_SET_NO":999,"REV_AT_EPOCH":18245,"BSTAR":0.00016842703,"MEAN_MOTION_DOT":2.371e-5,"MEAN_MOTION_DDOT":0},{"OBJECT_NAME":"STARLINK-4370","OBJECT_ID":"2022-084AU","EPOCH":"2025-11-17T10:16:38.519904","MEAN_MOTION":15.05651818,"ECCENTRICITY":0.0001839,"INCLINATION":97.606,"RA_OF_ASC_NODE":20.5575,"ARG_OF_PERICENTER":85.0929,"MEAN_ANOMALY":275.0508,"EPHEMERIS_TYPE":0,"CLASSIFICATION_TYPE":"U","NORAD_CAT_ID":53231,"ELEMENT_SET_NO":999,"REV_AT_EPOCH":18249,"BSTAR":-8.9896e-6,"MEAN_MOTION_DOT":-1.91e-6,"MEAN_MOTION_DDOT":0},{"OBJECT_NAME":"STARLINK-4371","OBJECT_ID":"2022-084AV","EPOCH":"2025-11-17T09:51:25.406208","MEAN_MOTION":15.01267308,"ECCENTRICITY":0.000245,"INCLINATION":97.6032,"RA_OF_ASC_NODE":20.2754,"ARG_OF_PERICENTER":184.9223,"MEAN_ANOMALY":175.1978,"EPHEMERIS_TYPE":0,"CLASSIFICATION_TYPE":"U","NORAD_CAT_ID":53232,"ELEMENT_SET_NO":999,"REV_AT_EPOCH":18247,"BSTAR":-6.6261e-5,"MEAN_MOTION_DOT":-9.1e-6,"MEAN_MOTION_DDOT":0},{"OBJECT_NAME":"STARLINK-4372","OBJECT_ID":"2022-084AW","EPOCH":"2025-11-17T03:19:51.290976","MEAN_MOTION":15.01258632,"ECCENTRICITY":0.00025134,"INCLINATION":97.603,"RA_OF_ASC_NODE":20.0114,"ARG_OF_PERICENTER":181.4163,"MEAN_ANOMALY":178.7055,"EPHEMERIS_TYPE":0,"CLASSIFICATION_TYPE":"U","NORAD_CAT_ID":53233,"ELEMENT_SET_NO":999,"REV_AT_EPOCH":18243,"BSTAR":0.00011820451,"MEAN_MOTION_DOT":1.46e-5,"MEAN_MOTION_DDOT":0},{"OBJECT_NAME":"STARLINK-4368","OBJECT_ID":"2022-084AX","EPOCH":"2025-11-17T09:46:05.434176","MEAN_MOTION":15.01275704,"ECCENTRICITY":0.0003133,"INCLINATION":97.6021,"RA_OF_ASC_NODE":20.2683,"ARG_OF_PERICENTER":164.0903,"MEAN_ANOMALY":196.042,"EPHEMERIS_TYPE":0,"CLASSIFICATION_TYPE":"U","NORAD_CAT_ID":53234,"ELEMENT_SET_NO":999,"REV_AT_EPOCH":18348,"BSTAR":8.8871e-5,"MEAN_MOTION_DOT":1.084e-5,"MEAN_MOTION_DDOT":0},{"OBJECT_NAME":"STARLINK-4056","OBJECT_ID":"2022-086A","EPOCH":"2025-11-17T08:39:05.747616","MEAN_MOTION":15.0884807,"ECCENTRICITY":9.02e-5,"INCLINATION":53.2183,"RA_OF_ASC_NODE":343.3756,"ARG_OF_PERICENTER":95.6685,"MEAN_ANOMALY":264.441,"EPHEMERIS_TYPE":0,"CLASSIFICATION_TYPE":"U","NORAD_CAT_ID":53242,"ELEMENT_SET_NO":999,"REV_AT_EPOCH":18435,"BSTAR":8.3914e-5,"MEAN_MOTION_DOT":1.048e-5,"MEAN_MOTION_DDOT":0},{"OBJECT_NAME":"STARLINK-4047","OBJECT_ID":"2022-086B","EPOCH":"2025-11-17T11:09:24.515712","MEAN_MOTION":15.0885687,"ECCENTRICITY":0.0001206,"INCLINATION":53.2178,"RA_OF_ASC_NODE":347.6062,"ARG_OF_PERICENTER":94.9441,"MEAN_ANOMALY":265.1688,"EPHEMERIS_TYPE":0,"CLASSIFICATION_TYPE":"U","NORAD_CAT_ID":53243,"ELEMENT_SET_NO":999,"REV_AT_EPOCH":18432,"BSTAR":6.4698e-5,"MEAN_MOTION_DOT":7.42e-6,"MEAN_MOTION_DDOT":0},{"OBJECT_NAME":"STARLINK-4125","OBJECT_ID":"2022-086C","EPOCH":"2025-11-17T08:35:47.997888","MEAN_MOTION":15.08843008,"ECCENTRICITY":0.0001911,"INCLINATION":53.2197,"RA_OF_ASC_NODE":348.472,"ARG_OF_PERICENTER":87.9609,"MEAN_ANOMALY":272.1602,"EPHEMERIS_TYPE":0,"CLASSIFICATION_TYPE":"U","NORAD_CAT_ID":53244,"ELEMENT_SET_NO":999,"REV_AT_EPOCH":18428,"BSTAR":-4.6588e-5,"MEAN_MOTION_DOT":-1.03e-5,"MEAN_MOTION_DDOT":0},{"OBJECT_NAME":"STARLINK-4131","OBJECT_ID":"2022-086E","EPOCH":"2025-11-17T11:41:15.211968","MEAN_MOTION":15.08852202,"ECCENTRICITY":0.0001065,"INCLINATION":53.2174,"RA_OF_ASC_NODE":347.8183,"ARG_OF_PERICENTER":70.7803,"MEAN_ANOMALY":289.3305,"EPHEMERIS_TYPE":0,"CLASSIFICATION_TYPE":"U","NORAD_CAT_ID":53246,"ELEMENT_SET_NO":999,"REV_AT_EPOCH":18319,"BSTAR":0.00043596,"MEAN_MOTION_DOT":6.659e-5,"MEAN_MOTION_DDOT":0},{"OBJECT_NAME":"STARLINK-4061","OBJECT_ID":"2022-086F","EPOCH":"2025-11-17T09:00:19.426176","MEAN_MOTION":15.08851305,"ECCENTRICITY":0.0001312,"INCLINATION":53.2175,"RA_OF_ASC_NODE":343.5064,"ARG_OF_PERICENTER":97.1639,"MEAN_ANOMALY":262.9502,"EPHEMERIS_TYPE":0,"CLASSIFICATION_TYPE":"U","NORAD_CAT_ID":53247,"ELEMENT_SET_NO":999,"REV_AT_EPOCH":18435,"BSTAR":8.8177e-5,"MEAN_MOTION_DOT":1.116e-5,"MEAN_MOTION_DDOT":0},{"OBJECT_NAME":"STARLINK-4135","OBJECT_ID":"2022-086G","EPOCH":"2025-11-17T08:44:24.808992","MEAN_MOTION":15.08844684,"ECCENTRICITY":0.0001337,"INCLINATION":53.2182,"RA_OF_ASC_NODE":343.4743,"ARG_OF_PERICENTER":90.2437,"MEAN_ANOMALY":269.8708,"EPHEMERIS_TYPE":0,"CLASSIFICATION_TYPE":"U","NORAD_CAT_ID":53248,"ELEMENT_SET_NO":999,"REV_AT_EPOCH":18435,"BSTAR":-3.267e-5,"MEAN_MOTION_DOT":-8.08e-6,"MEAN_MOTION_DDOT":0}]
